[
    {
        "Altitude(m)": 622200.151261593,
        "Argument of Periapsis(deg)": 0.0,
        "Eccentricity": 0.0,
        "Inclination(deg)": 60.0,
        "Latitude(deg)": -52.16265983483984,
        "Longitude(deg)": -87.63925103631071,
        "Mean Anomaly(deg)": 294.5455,
        "RAAN(deg)": 60.0,
        "Satellite Name": "Test1 282",
        "Satellite Number": 282,
        "Semi-Major Axis(m)": 6980739.136638005,
        "Time(s)": 0
    },
    {
        "Altitude(m)": 622058.319158968,
        "Argument of Periapsis(deg)": 0.00010418945913296404,
        "Eccentricity": 0.0,
        "Inclination(deg)": 60.0,
        "Latitude(deg)": -51.79940952361323,
        "Longitude(deg)": -86.87119104406771,
        "Mean Anomaly(deg)": 295.1656061454619,
        "RAAN(deg)": 59.99957995086026,
        "Satellite Name": "Test1 282",
        "Satellite Number": 282,
        "Semi-Major Axis(m)": 6980739.136638005,
        "Time(s)": 10
    }
]